{
  "norad_id": 58663,
  "name": "TIANMU-1 22",
  "history": [
    {
      "epoch": "2026-03-28T21:57:15.726240Z",
      "apogee_km": 478.04287303929686,
      "perigee_km": 474.687731252443,
      "latitude_deg": -4.224944107450088e-05,
      "longitude_deg": 48.28390968238384,
      "height_km": 479.9041395632629,
      "semi_major_axis_km": 6854.502302145869,
      "eccentricity": 0.00024474,
      "inclination_deg": 97.4395,
      "raan_deg": 203.9278,
      "arg_perigee_deg": 255.0437,
      "mean_anomaly_deg": 105.0532,
      "mean_motion_rev_day": 15.29814849
    },
    {
      "epoch": "2026-03-29T05:48:12.519648Z",
      "apogee_km": 478.01258729112214,
      "perigee_km": 474.6538968725008,
      "latitude_deg": -2.444416028096941e-05,
      "longitude_deg": -69.44768320393186,
      "height_km": 479.9169607294655,
      "semi_major_axis_km": 6854.470242081811,
      "eccentricity": 0.000245,
      "inclination_deg": 97.4396,
      "raan_deg": 204.2552,
      "arg_perigee_deg": 253.469,
      "mean_anomaly_deg": 106.6281,
      "mean_motion_rev_day": 15.29825582
    },
    {
      "epoch": "2026-03-30T05:21:02.061792Z",
      "apogee_km": 477.97219484277866,
      "perigee_km": 474.55596134545704,
      "latitude_deg": -3.956239586405491e-05,
      "longitude_deg": -62.639051028436306,
      "height_km": 479.9907408344101,
      "semi_major_axis_km": 6854.401078094117,
      "eccentricity": 0.0002492,
      "inclination_deg": 97.4399,
      "raan_deg": 205.2373,
      "arg_perigee_deg": 248.6901,
      "mean_anomaly_deg": 111.4073,
      "mean_motion_rev_day": 15.29848737
    },
    {
      "epoch": "2026-03-30T06:55:13.319904Z",
      "apogee_km": 477.96712587749334,
      "perigee_km": 474.55418419709804,
      "latitude_deg": -1.874252125118539e-05,
      "longitude_deg": -86.18493160207494,
      "height_km": 479.9948206542388,
      "semi_major_axis_km": 6854.397655037295,
      "eccentricity": 0.00024896,
      "inclination_deg": 97.4399,
      "raan_deg": 205.3028,
      "arg_perigee_deg": 248.3976,
      "mean_anomaly_deg": 111.6999,
      "mean_motion_rev_day": 15.29849883
    },
    {
      "epoch": "2026-03-30T13:11:58.272864Z",
      "apogee_km": 477.9613784391986,
      "perigee_km": 474.5207548248727,
      "latitude_deg": 7.030526321578478e-05,
      "longitude_deg": 179.63187746095156,
      "height_km": 480.01328908613954,
      "semi_major_axis_km": 6854.378066632035,
      "eccentricity": 0.00025098,
      "inclination_deg": 97.44,
      "raan_deg": 205.5648,
      "arg_perigee_deg": 247.2121,
      "mean_anomaly_deg": 112.8855,
      "mean_motion_rev_day": 15.29856441
    },
    {
      "epoch": "2026-03-30T22:37:05.539872Z",
      "apogee_km": 477.9515136134478,
      "perigee_km": 474.47101265239417,
      "latitude_deg": 2.5288263999206606e-05,
      "longitude_deg": 38.35759290092168,
      "height_km": 480.05207231720885,
      "semi_major_axis_km": 6854.348263132921,
      "eccentricity": 0.00025389,
      "inclination_deg": 97.4401,
      "raan_deg": 205.9576,
      "arg_perigee_deg": 245.021,
      "mean_anomaly_deg": 115.0767,
      "mean_motion_rev_day": 15.29866419
    }
  ]
}